[{"OBJECT_NAME":"CS1","OBJECT_ID":"2021-088B","EPOCH":"2026-03-09T18:02:30.253920","MEAN_MOTION":15.31848439,"ECCENTRICITY":0.00141292,"INCLINATION":97.3882,"RA_OF_ASC_NODE":132.1684,"ARG_OF_PERICENTER":78.0335,"MEAN_ANOMALY":282.249,"EPHEMERIS_TYPE":0,"CLASSIFICATION_TYPE":"U","NORAD_CAT_ID":49261,"ELEMENT_SET_NO":999,"REV_AT_EPOCH":24518,"BSTAR":0.00051175576,"MEAN_MOTION_DOT":0.00015722,"MEAN_MOTION_DDOT":0},{"OBJECT_NAME":"STARLINK-32456","OBJECT_ID":"2024-216K","EPOCH":"2026-03-09T21:24:16.987392","MEAN_MOTION":15.27578482,"ECCENTRICITY":0.00014749,"INCLINATION":43.0023,"RA_OF_ASC_NODE":255.4346,"ARG_OF_PERICENTER":293.7724,"MEAN_ANOMALY":66.2973,"EPHEMERIS_TYPE":0,"CLASSIFICATION_TYPE":"U","NORAD_CAT_ID":62041,"ELEMENT_SET_NO":999,"REV_AT_EPOCH":7390,"BSTAR":0.00093050785,"MEAN_MOTION_DOT":0.00025431,"MEAN_MOTION_DDOT":0}]
